[
    {
        "Altitude(m)": 706640.4797444844,
        "Argument of Periapsis(deg)": 0.005695060593313534,
        "Eccentricity": 0.0,
        "Inclination(deg)": 45.0,
        "Latitude(deg)": 42.17505485087607,
        "Longitude(deg)": -16.07056641348188,
        "Mean Anomaly(deg)": 71.2211083237404,
        "RAAN(deg)": 19.994624029270895,
        "Satellite Name": "Constellation 1 92",
        "Satellite Number": 92,
        "Semi-Major Axis(m)": 7083131.272910544,
        "Time(s)": 95
    },
    {
        "Altitude(m)": 706644.5932699465,
        "Argument of Periapsis(deg)": 0.00575500859955894,
        "Eccentricity": 0.0,
        "Inclination(deg)": 45.0,
        "Latitude(deg)": 42.19368976648315,
        "Longitude(deg)": -15.996845528324927,
        "Mean Anomaly(deg)": 71.2818094639903,
        "RAAN(deg)": 19.994567440105328,
        "Satellite Name": "Constellation 1 92",
        "Satellite Number": 92,
        "Semi-Major Axis(m)": 7083131.272910544,
        "Time(s)": 96
    },
    {
        "Altitude(m)": 706648.6960684702,
        "Argument of Periapsis(deg)": 0.005814956605804345,
        "Eccentricity": 0.0,
        "Inclination(deg)": 45.0,
        "Latitude(deg)": 42.21227180709332,
        "Longitude(deg)": -15.923078833114285,
        "Mean Anomaly(deg)": 71.3425106042402,
        "RAAN(deg)": 19.99451085093976,
        "Satellite Name": "Constellation 1 92",
        "Satellite Number": 92,
        "Semi-Major Axis(m)": 7083131.272910544,
        "Time(s)": 97
    },
    {
        "Altitude(m)": 706652.7881156349,
        "Argument of Periapsis(deg)": 0.00587490461204975,
        "Eccentricity": 0.0,
        "Inclination(deg)": 45.0,
        "Latitude(deg)": 42.23080090792571,
        "Longitude(deg)": -15.849266569262356,
        "Mean Anomaly(deg)": 71.40321174449011,
        "RAAN(deg)": 19.994454261774187,
        "Satellite Name": "Constellation 1 92",
        "Satellite Number": 92,
        "Semi-Major Axis(m)": 7083131.272910544,
        "Time(s)": 98
    },
    {
        "Altitude(m)": 706656.8693870882,
        "Argument of Periapsis(deg)": 0.005934852618295156,
        "Eccentricity": 0.0,
        "Inclination(deg)": 45.0,
        "Latitude(deg)": 42.24927700428688,
        "Longitude(deg)": -15.775408810641038,
        "Mean Anomaly(deg)": 71.46391288474,
        "RAAN(deg)": 19.99439767260862,
        "Satellite Name": "Constellation 1 92",
        "Satellite Number": 92,
        "Semi-Major Axis(m)": 7083131.272910544,
        "Time(s)": 99
    },
    {
        "Altitude(m)": 706660.939858541,
        "Argument of Periapsis(deg)": 0.005994800624540561,
        "Eccentricity": 0.0,
        "Inclination(deg)": 45.0,
        "Latitude(deg)": 42.26770003157132,
        "Longitude(deg)": -15.701505631679183,
        "Mean Anomaly(deg)": 71.5246140249899,
        "RAAN(deg)": 19.99434108344305,
        "Satellite Name": "Constellation 1 92",
        "Satellite Number": 92,
        "Semi-Major Axis(m)": 7083131.272910544,
        "Time(s)": 100
    },
    {
        "Altitude(m)": 706664.9995057749,
        "Argument of Periapsis(deg)": 0.006054748630785968,
        "Eccentricity": 0.0,
        "Inclination(deg)": 45.0,
        "Latitude(deg)": 42.28606992526243,
        "Longitude(deg)": -15.627557107363,
        "Mean Anomaly(deg)": 71.5853151652398,
        "RAAN(deg)": 19.99428449427748,
        "Satellite Name": "Constellation 1 92",
        "Satellite Number": 92,
        "Semi-Major Axis(m)": 7083131.272910544,
        "Time(s)": 101
    },
    {
        "Altitude(m)": 706669.0483046343,
        "Argument of Periapsis(deg)": 0.006114696637031373,
        "Eccentricity": 0.0,
        "Inclination(deg)": 45.0,
        "Latitude(deg)": 42.30438662093335,
        "Longitude(deg)": -15.553563313236538,
        "Mean Anomaly(deg)": 71.6460163054897,
        "RAAN(deg)": 19.994227905111913,
        "Satellite Name": "Constellation 1 92",
        "Satellite Number": 92,
        "Semi-Major Axis(m)": 7083131.272910544,
        "Time(s)": 102
    },
    {
        "Altitude(m)": 706673.0862310386,
        "Argument of Periapsis(deg)": 0.006174644643276778,
        "Eccentricity": 0.0,
        "Inclination(deg)": 45.0,
        "Latitude(deg)": 42.32265005424777,
        "Longitude(deg)": -15.479524325402153,
        "Mean Anomaly(deg)": 71.70671744573961,
        "RAAN(deg)": 19.994171315946343,
        "Satellite Name": "Constellation 1 92",
        "Satellite Number": 92,
        "Semi-Major Axis(m)": 7083131.272910544,
        "Time(s)": 103
    },
    {
        "Altitude(m)": 706677.1132609721,
        "Argument of Periapsis(deg)": 0.006234592649522184,
        "Eccentricity": 0.0,
        "Inclination(deg)": 45.0,
        "Latitude(deg)": 42.340860160960574,
        "Longitude(deg)": -15.405440388617913,
        "Mean Anomaly(deg)": 71.7674185859895,
        "RAAN(deg)": 19.994114726780772,
        "Satellite Name": "Constellation 1 92",
        "Satellite Number": 92,
        "Semi-Major Axis(m)": 7083131.272910544,
        "Time(s)": 104
    },
    {
        "Altitude(m)": 706681.129370493,
        "Argument of Periapsis(deg)": 0.00629454065576759,
        "Eccentricity": 0.0,
        "Inclination(deg)": 45.0,
        "Latitude(deg)": 42.359016876919945,
        "Longitude(deg)": -15.331311243910255,
        "Mean Anomaly(deg)": 71.8281197262394,
        "RAAN(deg)": 19.994058137615202,
        "Satellite Name": "Constellation 1 92",
        "Satellite Number": 92,
        "Semi-Major Axis(m)": 7083131.272910544,
        "Time(s)": 105
    },
    {
        "Altitude(m)": 706685.1345357063,
        "Argument of Periapsis(deg)": 0.006354488662012995,
        "Eccentricity": 0.0,
        "Inclination(deg)": 45.0,
        "Latitude(deg)": 42.377120138066324,
        "Longitude(deg)": -15.257137137155881,
        "Mean Anomaly(deg)": 71.8888208664893,
        "RAAN(deg)": 19.99400154844963,
        "Satellite Name": "Constellation 1 92",
        "Satellite Number": 92,
        "Semi-Major Axis(m)": 7083131.272910544,
        "Time(s)": 106
    },
    {
        "Altitude(m)": 706689.1287328164,
        "Argument of Periapsis(deg)": 0.006414436668258401,
        "Eccentricity": 0.0,
        "Inclination(deg)": 45.0,
        "Latitude(deg)": 42.39516988043464,
        "Longitude(deg)": -15.182918146694554,
        "Mean Anomaly(deg)": 71.94952200673922,
        "RAAN(deg)": 19.993944959284065,
        "Satellite Name": "Constellation 1 92",
        "Satellite Number": 92,
        "Semi-Major Axis(m)": 7083131.272910544,
        "Time(s)": 107
    },
    {
        "Altitude(m)": 706693.1119380725,
        "Argument of Periapsis(deg)": 0.0064743846745038075,
        "Eccentricity": 0.0,
        "Inclination(deg)": 45.0,
        "Latitude(deg)": 42.4131660401548,
        "Longitude(deg)": -15.108654351426551,
        "Mean Anomaly(deg)": 72.01022314698909,
        "RAAN(deg)": 19.993888370118494,
        "Satellite Name": "Constellation 1 92",
        "Satellite Number": 92,
        "Semi-Major Axis(m)": 7083131.272910544,
        "Time(s)": 108
    },
    {
        "Altitude(m)": 706697.0841278031,
        "Argument of Periapsis(deg)": 0.0065343326807492125,
        "Eccentricity": 0.0,
        "Inclination(deg)": 45.0,
        "Latitude(deg)": 42.431108553452574,
        "Longitude(deg)": -15.034345830812642,
        "Mean Anomaly(deg)": 72.070924287239,
        "RAAN(deg)": 19.993831780952924,
        "Satellite Name": "Constellation 1 92",
        "Satellite Number": 92,
        "Semi-Major Axis(m)": 7083131.272910544,
        "Time(s)": 109
    },
    {
        "Altitude(m)": 706701.0452783994,
        "Argument of Periapsis(deg)": 0.0065942806869946176,
        "Eccentricity": 0.0,
        "Inclination(deg)": 45.0,
        "Latitude(deg)": 42.44899735665052,
        "Longitude(deg)": -14.959992664874786,
        "Mean Anomaly(deg)": 72.13162542748888,
        "RAAN(deg)": 19.993775191787357,
        "Satellite Name": "Constellation 1 92",
        "Satellite Number": 92,
        "Semi-Major Axis(m)": 7083131.272910544,
        "Time(s)": 110
    },
    {
        "Altitude(m)": 706704.9953663293,
        "Argument of Periapsis(deg)": 0.006654228693240024,
        "Eccentricity": 0.0,
        "Inclination(deg)": 45.0,
        "Latitude(deg)": 42.46683238616853,
        "Longitude(deg)": -14.885595102293273,
        "Mean Anomaly(deg)": 72.19232656773879,
        "RAAN(deg)": 19.993718602621787,
        "Satellite Name": "Constellation 1 92",
        "Satellite Number": 92,
        "Semi-Major Axis(m)": 7083131.272910544,
        "Time(s)": 111
    },
    {
        "Altitude(m)": 706708.9343681175,
        "Argument of Periapsis(deg)": 0.006714176699485429,
        "Eccentricity": 0.0,
        "Inclination(deg)": 45.0,
        "Latitude(deg)": 42.48461357852594,
        "Longitude(deg)": -14.811152888019445,
        "Mean Anomaly(deg)": 72.25302770798869,
        "RAAN(deg)": 19.993662013456216,
        "Satellite Name": "Constellation 1 92",
        "Satellite Number": 92,
        "Semi-Major Axis(m)": 7083131.272910544,
        "Time(s)": 112
    },
    {
        "Altitude(m)": 706712.8622603713,
        "Argument of Periapsis(deg)": 0.006774124705730835,
        "Eccentricity": 0.0,
        "Inclination(deg)": 45.0,
        "Latitude(deg)": 42.502340870340596,
        "Longitude(deg)": -14.736666271857423,
        "Mean Anomaly(deg)": 72.31372884823858,
        "RAAN(deg)": 19.993605424290646,
        "Satellite Name": "Constellation 1 92",
        "Satellite Number": 92,
        "Semi-Major Axis(m)": 7083131.272910544,
        "Time(s)": 113
    }
]